[{"OBJECT_NAME":"STARLINK-5792","OBJECT_ID":"2023-042BB","EPOCH":"2026-03-09T07:07:46.370208","MEAN_MOTION":15.02531824,"ECCENTRICITY":0.00012489,"INCLINATION":43.0038,"RA_OF_ASC_NODE":45.0244,"ARG_OF_PERICENTER":269.4488,"MEAN_ANOMALY":90.6211,"EPHEMERIS_TYPE":0,"CLASSIFICATION_TYPE":"U","NORAD_CAT_ID":56035,"ELEMENT_SET_NO":999,"REV_AT_EPOCH":16300,"BSTAR":2.6108613e-5,"MEAN_MOTION_DOT":1.49e-6,"MEAN_MOTION_DDOT":0},{"OBJECT_NAME":"ELECTRON KICK STAGE R\/B","OBJECT_ID":"2025-169B","EPOCH":"2026-03-08T18:46:24.954528","MEAN_MOTION":15.00375909,"ECCENTRICITY":0.00087281,"INCLINATION":42.0099,"RA_OF_ASC_NODE":207.6084,"ARG_OF_PERICENTER":269.0782,"MEAN_ANOMALY":90.9044,"EPHEMERIS_TYPE":0,"CLASSIFICATION_TYPE":"U","NORAD_CAT_ID":65117,"ELEMENT_SET_NO":999,"REV_AT_EPOCH":3234,"BSTAR":0.00071792459,"MEAN_MOTION_DOT":8.999e-5,"MEAN_MOTION_DDOT":0}]
